HORYU-4                 
1 41340U 16012D   20332.49678571  .00001187  00000-0  82565-4 0  9996
2 41340  31.0065  13.3822 0013881 327.4415  32.5364 15.01642911262402
E-ST@R-II               
1 41459U 16025D   20332.90508781  .00002267  00000-0  11551-3 0  9998
2 41459  98.1185  91.6092 0163915  22.0873 338.7296 15.07010271252057
AAUSAT 4                
1 41460U 16025E   20332.78120693  .00003742  00000-0  18175-3 0  9996
2 41460  98.1181  94.4253 0151614   9.2683 351.1271 15.09569028252271
BEESAT-4                
1 41619U 16040W   20332.69567946  .00004260  00000-0  17580-3 0  9990
2 41619  97.3005  28.2226 0009959 331.8224  28.2474 15.24530612234267
CANX-7                  
1 41788U 16059F   20332.83229769  .00013481  00000-0  17255-2 0  9994
2 41788  98.2564  65.1255 0032024 140.7977 219.5549 14.81097993223973
RAVAN                   
1 41849U 16067B   20332.59234338  .00001480  00000-0  12808-3 0  9998
2 41849  97.9461  85.3636 0009154  68.3599 291.8597 14.98728963221052
CELTEE 1                
1 41850U 16067C   20332.54013686  .00000895  00000-0  82431-4 0  9995
2 41850  97.9408  82.5379 0010368  69.2895 290.9436 14.97287420220908
OPTICUBE 04             
1 41851U 16067D   20332.56686447  .00000141  00000-0  17592-4 0  9999
2 41851  97.9383  82.0913 0009899  70.3214 289.9074 14.96989342220889
AEROCUBE 8D             
1 41852U 16067E   20332.58264749  .00000978  00000-0  90193-4 0  9995
2 41852  97.9386  81.9539 0010794  72.0746 288.1651 14.97018612220864
AEROCUBE 8C             
1 41853U 16067F   20332.55117991  .00000203  00000-0  22966-4 0  9993
2 41853  97.9391  81.8112 0011294  71.0884 289.1560 14.96989270220850
PROMETHEUS 2-1          
1 41854U 16067G   20332.55009876  .00000706  00000-0  66002-4 0  9993
2 41854  97.9403  82.2487 0011618  69.9725 290.2746 14.97370990220870
PROMETHEUS 2-3          
1 41855U 16067H   20332.74996227  .00000695  00000-0  65022-4 0  9998
2 41855  97.9405  82.4925 0011799  69.7372 290.5116 14.97382824220905
INS-1B                  
1 41954U 17008G   20332.73273098  .00004172  00000-0  16846-3 0  9990
2 41954  97.3367  34.0742 0010600  86.4928 273.7523 15.25272276210252
BGUSAT                  
1 41999U 17008BD  20332.68395731  .00007208  00000-0  26343-3 0  9998
2 41999  97.3508  39.1419 0009379  92.9977 267.2336 15.28350911209874
DIDO-2                  
1 42000U 17008BE  20332.73481322  .00002250  00000-0  93492-4 0  9992
2 42000  97.3373  34.5083 0010041 102.5665 257.6697 15.24795570209642
PEASSS                  
1 42015U 17008BV  20332.71697688  .00003461  00000-0  13708-3 0  9996
2 42015  97.3402  36.4396 0007917 103.7333 256.4787 15.26060244210242
AL-FARABI 1             
1 42016U 17008BW  20332.70829804  .00004596  00000-0  17592-3 0  9998
2 42016  97.3441  37.7635 0007704 102.9163 257.2937 15.27030666210435
NAYIF-1 (EO-88)         
1 42017U 17008BX  20332.61696328  .00004794  00000-0  18311-3 0  9992
2 42017  97.3436  37.6830 0007772 102.5692 257.6417 15.27074773210449
UCLSAT                  
1 42765U 17036A   20332.67943818  .00003679  00000-0  15458-3 0  9998
2 42765  97.2808  22.3800 0011592 162.5424 197.6215 15.23984013190846
LITUANICASAT-2          
1 42768U 17036D   20332.71610582  .00006424  00000-0  26072-3 0  9990
2 42768  97.2875  22.6809 0015094 154.1583 206.0412 15.24832625190711
AALTO-1                 
1 42775U 17036L   20332.76800085  .00002225  00000-0  99811-4 0  9999
2 42775  97.2781  19.8042 0014322 158.7360 201.4475 15.22132669190513
URSA MAIOR              
1 42776U 17036M   20332.67074819  .00002497  00000-0  11095-3 0  9996
2 42776  97.2793  20.0685 0014120 158.6277 201.5552 15.22345814190511
COMPASS 2               
1 42777U 17036N   20332.69499242  .00005116  00000-0  21029-3 0  9999
2 42777  97.2859  23.0017 0012786 154.4459 205.7413 15.24534961190662
DIAMOND RED             
1 42783U 17036U   20332.61979851  .00002783  00000-0  12036-3 0  9992
2 42783  97.2807  21.4149 0012260 165.8096 194.3488 15.23206243190584
PEGASUS                 
1 42784U 17036V   20332.73912683  .00003305  00000-0  14056-3 0  9991
2 42784  97.2812  22.0597 0012143 163.9997 196.1627 15.23639196190632
DIAMOND GREEN           
1 42785U 17036W   20332.68450798  .00002876  00000-0  12429-3 0  9994
2 42785  97.2811  21.5179 0012164 166.2084 193.9488 15.23204442190663
DIAMOND BLUE            
1 42786U 17036X   20332.68348735  .00002773  00000-0  11991-3 0  9991
2 42786  97.2811  21.5113 0011987 166.3003 193.8561 15.23206127190669
NUDTSAT                 
1 42787U 17036Y   20332.90913387  .00004526  00000-0  18301-3 0  9998
2 42787  97.2844  24.0235 0011514 157.8617 202.3123 15.25166122190607
SUCHAI                  
1 42788U 17036Z   20332.70100335  .00004254  00000-0  17681-3 0  9996
2 42788  97.2824  22.7715 0011731 161.6171 198.5493 15.24269822190744
SKCUBE                  
1 42789U 17036AA  20332.76550855  .00003937  00000-0  16476-3 0  9997
2 42789  97.2818  22.6326 0011618 161.7556 198.4101 15.24076742190660
VZLUSAT-1               
1 42790U 17036AB  20332.70326026  .00005238  00000-0  21149-3 0  9993
2 42790  97.2847  23.8150 0011196 158.7593 201.4113 15.25140803190726
ROBUSTA-1B              
1 42792U 17036AD  20332.69811555  .00003957  00000-0  16459-3 0  9993
2 42792  97.2821  22.8720 0011214 161.9199 198.2440 15.24283470190689
CICERO 6                
1 42793U 17036AE  20332.69611849  .00002499  00000-0  10757-3 0  9993
2 42793  97.2793  22.0486 0010469 164.4792 195.6768 15.23473724190717
D-SAT                   
1 42794U 17036AF  20332.55375601  .00000748  00000-0  69725-4 0  9997
2 42794  97.4789 357.0100 0126013 179.8040 180.3251 14.91373911186969
CORVUS BC2              
1 42846U 17042X   20332.73122629  .00000515  00000-0  55738-4 0  9993
2 42846  97.4983 208.7014 0011171  92.2793 267.9705 14.92176873183759
CORVUS BC1              
1 42847U 17042Y   20332.64874636  .00000254  00000-0  30042-4 0  9997
2 42847  97.4985 208.8225 0010826  91.7325 268.5135 14.92278950183740
MIRATA                  
1 43015U 17073C   20332.76853674  .00002550  00000-0  20174-3 0  9996
2 43015  97.7123 238.7340 0250600 235.5300 122.2010 14.80061155163371
MAKERSAT 0              
1 43016U 17073D   20332.71480721  .00001587  00000-0  12812-3 0  9990
2 43016  97.7161 238.8219 0253744 237.1915 120.4631 14.79512123163331
DELLINGR (RBLE)         
1 43021U 98067NJ  20332.74280244  .00057462  00000-0  34202-3 0  9999
2 43021  51.6311 162.1955 0001390 238.6265 121.4600 15.77386026172574
AEROCUBE 7B (OCSD B)    
1 43042U 17071F   20332.51393844  .00014384  00000-0  30656-3 0  9999
2 43042  51.6377 345.6970 0003578 292.6790  67.3818 15.45161029167579
AEROCUBE 7C (OCSD C)    
1 43043U 17071G   20332.52017375  .00013290  00000-0  28435-3 0  9990
2 43043  51.6377 345.7540 0003843 296.7519  63.3074 15.45119742167545
CHEFSAT                 
1 43044U 17071H   20332.70570074  .00029843  00000-0  49884-3 0  9993
2 43044  51.6369 323.3382 0002938 320.7184  39.3593 15.51651249167867
ASGARDIA 1              
1 43049U 17071N   20332.31882115  .00011650  00000-0  25082-3 0  9998
2 43049  51.6391 346.0034 0001912 325.5717  34.5146 15.45072562167521
ISARA                   
1 43050U 17071P   20332.42722400  .00022399  00000-0  39669-3 0  9990
2 43050  51.6347 328.8139 0001881 349.7233  10.3717 15.50188728167764
PROPCUBE 2 (FAUNA)      
1 43052U 17071R   20332.44601485  .00012611  00000-0  26546-3 0  9999
2 43052  51.6379 343.1163 0001831 325.8466  34.2403 15.45656734167562
CORVUS BC3              
1 43118U 18004H   20332.77525847  .00002426  00000-0  10404-3 0  9991
2 43118  97.4287  41.5854 0009886 190.0321 170.0721 15.23672881159860
MICROMAS-2A             
1 43131U 18004W   20332.77432909  .00005892  00000-0  23188-3 0  9995
2 43131  97.4350  43.9465 0008693 185.5530 174.5613 15.25984661159993
SPACEBEE-4              
1 43139U 18004AE  20332.72243272  .00008537  00000-0  31891-3 0  9990
2 43139  97.4396  45.5125 0008148 184.9863 175.1297 15.27587492160078
SPACEBEE-3              
1 43140U 18004AF  20332.75663108  .00011443  00000-0  41166-3 0  9995
2 43140  97.4417  46.5215 0007885 181.9418 178.1792 15.28745758160137
SPACEBEE-2              
1 43141U 18004AG  20332.76535455  .00012752  00000-0  45284-3 0  9999
2 43141  97.4434  46.9042 0007859 181.3568 178.7652 15.29141844160150
SPACEBEE-1              
1 43142U 18004AH  20332.75604995  .00013648  00000-0  47755-3 0  9995
2 43142  97.4439  47.2655 0007789 180.7978 179.3251 15.29609787160168
CICERO 7                
1 43143U 18004AJ  20332.77370967  .00005391  00000-0  21263-3 0  9999
2 43143  97.4326  44.0842 0006756 192.5376 167.5695 15.25967633160011
GOMX-4B                 
1 43196U 18015E   20332.60399174  .00002799  00000-0  11626-3 0  9993
2 43196  97.4596 100.1467 0017031 248.0690 111.8737 15.24554003156756
GOMX-4A                 
1 43197U 18015F   20332.93778635  .00002283  00000-0  94602-4 0  9997
2 43197  97.4579 100.6232 0017369 248.8716 227.0243 15.24819698156828
UBAKUSAT                
1 43467U 98067NQ  20332.73950607  .00258913  37409-4  64429-3 0  9994
2 43467  51.6274 153.5991 0004033 251.0549 109.0022 15.95350550145956
CUBERRT                 
1 43546U 98067NU  20331.81655936  .13652478  12467-4  74947-3 0  9998
2 43546  51.6163 158.6708 0006544 274.8638  85.1642 16.42129147135921
TEMPEST-D               
1 43547U 98067NV  20332.15631498  .00023056  00000-0  21530-3 0  9990
2 43547  51.6347 208.6980 0003172 289.4701  70.5953 15.67190180134980
RAINCUBE                
1 43548U 98067NW  20332.73852831  .00272324  40439-4  65853-3 0  9995
2 43548  51.6246 162.5421 0004743 260.0590  99.9883 15.95860648136098
HALOSAT                 
1 43549U 98067NX  20332.79524670  .00162524  20901-4  50334-3 0  9999
2 43549  51.6308 165.3712 0002968 268.4342  91.6325 15.91362386135626
